IRIDIUM 57 [-]          
1 25273U 98019B   23333.68712351  .00000802  00000+0  27497-3 0  9994
2 25273  86.3984  22.0715 0002147  93.0487 267.0955 14.35000601343870
IRIDIUM 63 [-]          
1 25286U 98021B   23333.50558832  .00000919  00000+0  31282-3 0  9990
2 25286  86.3958 319.0904 0002054  85.9155 274.2276 14.35506554342663
IRIDIUM 69 [-]          
1 25319U 98026A   23333.74211845  .00001017  00000+0  31886-3 0  9998
2 25319  86.3971 333.9637 0004469  89.0507 271.1204 14.39688828341914
IRIDIUM 71 [-]          
1 25320U 98026B   23333.50902890  .00000942  00000+0  29294-3 0  9997
2 25320  86.3960 328.8770 0003723 120.6451 239.5115 14.40011787342159
IRIDIUM 73 [-]          
1 25344U 98032C   23333.39375114  .00001442  00000+0  36621-3 0  9998
2 25344  86.4393 286.6563 0002997  89.5991 270.5557 14.50159822348527
IRIDIUM 82 [-]          
1 25467U 98051A   23333.56095949  .00018077  00000+0  10382-2 0  9996
2 25467  86.3967  20.2538 0141622 233.4644 125.3484 15.04195998338278
IRIDIUM 2 [-]           
1 25527U 98066A   23333.74910022  .00059027  00000+0  11785-2 0  9995
2 25527  85.5187  70.3299 0004394  27.3700 332.7787 15.46597184376155
